OSCAR 7 (AO-7)          
1 07530U 74089B   26167.67608837 -.00000041  00000+0  30578-4 0  9992
2 07530 101.9900 180.9174 0012566 131.0726 344.0336 12.53698119360453
PHASE 3B (AO-10)        
1 14129U 83058B   26167.39836832  .00000184  00000+0  00000+0 0  9996
2 14129  25.9115 219.6954 6011122 115.4511 316.8847  2.05868576295470
UOSAT 2 (UO-11)         
1 14781U 84021B   26167.68441343  .00000930  00000+0  10024-3 0  9992
2 14781  97.8057 133.2646 0007608 174.0153 186.1158 14.90782155257057
LUSAT (LO-19)           
1 20442U 90005G   26167.55404471  .00000088  00000+0  47981-4 0  9996
2 20442  98.8851 189.3422 0011081 203.0347 157.0341 14.34123035902303
EYESAT A (AO-27)        
1 22825U 93061C   26167.72018012  .00000085  00000+0  49163-4 0  9990
2 22825  98.6881 235.1339 0009538 100.9121 259.3135 14.30942178706938
ITAMSAT (IO-26)         
1 22826U 93061D   26167.76963491  .00000079  00000+0  46477-4 0  9993
2 22826  98.6829 235.1008 0010072  86.0434 274.1901 14.31369092707251
RADIO ROSTO (RS15)      
1 23439U 94085A   26167.84991375 -.00000050  00000+0 -20163-3 0  9996
2 23439  64.8179 303.7617 0155939   3.9390 356.2723 11.27583472295869
JAS-2 (FO-29)           
1 24278U 96046B   26167.86751167  .00000005  00000+0  37591-4 0  9994
2 24278  98.5239  16.7835 0350901  97.2592 266.8568 13.53274370473126
TECHSAT 1B (GO-32)      
1 25397U 98043D   26167.85366090  .00000033  00000+0  34602-4 0  9993
2 25397  99.0067 160.6038 0001052 163.3790 196.7423 14.24428316451287
ISS (ZARYA)             
1 25544U 98067A   26167.86697329  .00007968  00000+0  15124-3 0  9997
2 25544  51.6339 301.6783 0004749 194.3570 165.7284 15.49265361571705
PCSAT (NO-44)           
1 26931U 01043C   26167.60055176  .00000075  00000+0  58858-4 0  9990
2 26931  67.0506 245.7892 0006082 264.6522  95.3886 14.31955906290369
SAUDISAT 1C (SO-50)     
1 27607U 02058C   26167.61583826  .00000824  00000+0  11462-3 0  9998
2 27607  64.5510 130.7531 0075275 262.5800  96.6748 14.83045885264372
CUTE-1 (CO-55)          
1 27844U 03031E   26167.82643209  .00000230  00000+0  11849-3 0  9998
2 27844  98.6736 176.3898 0009511 179.0123 181.1076 14.24335514191622
CUBESAT XI-IV (CO-57)   
1 27848U 03031J   26167.74442547  .00000195  00000+0  10473-3 0  9997
2 27848  98.6766 176.0218 0008995 198.3693 161.7162 14.23620607191318
MOZHAETS 4 (RS22)       
1 27939U 03042A   26167.88129492  .00000699  00000+0  11599-3 0  9995
2 27939  98.3461 352.2313 0009933 270.9686 196.4351 14.73466646215503
CUBESAT XI-V            
1 28895U 05043F   26167.38340975  .00001200  00000+0  19649-3 0  9999
2 28895  98.2985 322.9884 0013585 203.3717 156.6874 14.72629782101632
CUTE-1.7+APD II (CO-65) 
1 32785U 08021C   26167.85103046  .00003795  00000+0  24109-3 0  9997
2 32785  97.8272 149.2625 0009804  40.0986 320.0964 15.09448624985143
SEEDS II (CO-66)        
1 32791U 08021J   26167.74386277  .00015231  00000+0  48396-3 0  9993
2 32791  97.7513 165.6203 0001104   5.3792 354.7461 15.32737938987227
YUBILEINY (RS30)        
1 32953U 08025A   26167.85702833 -.00000037  00000+0 -33519-3 0  9990
2 32953  82.5037 355.6457 0018860 314.6031  45.3509 12.43179216819656
KKS-1 (KISEKI)          
1 33499U 09002H   26167.85180124  .00001098  00000+0  14149-3 0  9999
2 33499  98.1189  90.2887 0006545 297.1837  62.8708 14.83123438936148
SWISSCUBE               
1 35932U 09051B   26167.55290444  .00000809  00000+0  16935-3 0  9995
2 35932  98.4037  75.4301 0005921 205.2603 154.8309 14.62480577889065
BEESAT-1                
1 35933U 09051C   26167.69891536  .00000670  00000+0  14433-3 0  9997
2 35933  98.3964  75.2152 0004196 218.9046 141.1853 14.61719794889115
ITUPSAT1                
1 35935U 09051E   26167.68937774  .00000621  00000+0  13815-3 0  9992
2 35935  98.4049  74.3979 0006243 235.8160 124.2448 14.60440072888669
XIWANG-1 (HOPE-1)       
1 36122U 09072B   26167.86388745 -.00000331  00000+0 -75025-3 0  9993
2 36122 100.4027 121.7014 0006867 232.2967 127.7524 13.16437342792969
O/OREOS (USA 219)       
1 37224U 10062C   26167.86130505  .00001854  00000+0  18071-3 0  9994
2 37224  71.9713  81.0777 0012545  63.8034 296.4425 14.93743675116592
JUGNU                   
1 37839U 11058B   26167.72787189  .00000398  00000+0  68238-4 0  9996
2 37839  19.9615 311.2203 0018636  71.1708 330.3428 14.13776645758965
SRMSAT                  
1 37841U 11058D   26167.39100053  .00000354  00000+0  48037-4 0  9998
2 37841  19.9721  64.2860 0011804 194.8507 321.4366 14.11575402757709
STRAND-1                
1 39090U 13009E   26167.56865567  .00000207  00000+0  84083-4 0  9999
2 39090  98.3921 347.8182 0007698 227.4338 132.6200 14.37162942696977
ZACUBE-1 (TSHEPISOSAT)  
1 39417U 13066B   26167.87404306  .00002572  00000+0  20205-3 0  9991
2 39417  97.8081 130.2093 0040770 248.7630 110.9237 15.01187648680687
GOMX-1                  
1 39430U 13066Q   26167.84549977  .00001524  00000+0  23330-3 0  9995
2 39430  97.6477   8.3298 0130189  78.6172 282.9627 14.69459321669869
