OBJECT_NAME,OBJECT_ID,EPOCH,MEAN_MOTION,ECCENTRICITY,INCLINATION,RA_OF_ASC_NODE,ARG_OF_PERICENTER,MEAN_ANOMALY,EPHEMERIS_TYPE,CLASSIFICATION_TYPE,NORAD_CAT_ID,ELEMENT_SET_NO,REV_AT_EPOCH,BSTAR,MEAN_MOTION_DOT,MEAN_MOTION_DDOT
OSCAR 7 (AO-7),1974-089B,2026-06-16T16:13:34.035168,12.53698119,.0012566,101.9900,180.9174,131.0726,344.0336,0,U,7530,999,36045,.30578E-4,-.41E-6,0
PHASE 3B (AO-10),1983-058B,2026-06-16T09:33:39.022848,2.05868576,.60111221,25.9115,219.6954,115.4511,316.8847,0,U,14129,999,29547,0,.184E-5,0
UOSAT 2 (UO-11),1984-021B,2026-06-16T16:25:33.320352,14.90782155,.0007608,97.8057,133.2646,174.0153,186.1158,0,U,14781,999,25705,.10024E-3,.93E-5,0
LUSAT (LO-19),1990-005G,2026-06-16T13:17:49.462944,14.34123035,.0011081,98.8851,189.3422,203.0347,157.0341,0,U,20442,999,90230,.47981E-4,.88E-6,0
EYESAT A (AO-27),1993-061C,2026-06-16T17:17:03.562368,14.30942178,.0009538,98.6881,235.1339,100.9121,259.3135,0,U,22825,999,70693,.49163E-4,.85E-6,0
ITAMSAT (IO-26),1993-061D,2026-06-16T18:28:16.456224,14.31369092,.0010072,98.6829,235.1008,86.0434,274.1901,0,U,22826,999,70725,.46477E-4,.79E-6,0
RADIO ROSTO (RS15),1994-085A,2026-06-16T20:23:52.548000,11.27583472,.0155939,64.8179,303.7617,3.9390,356.2723,0,U,23439,999,29586,-.20163E-3,-.5E-6,0
JAS-2 (FO-29),1996-046B,2026-06-16T20:49:13.008288,13.53274370,.0350901,98.5239,16.7835,97.2592,266.8568,0,U,24278,999,47312,.37591E-4,.5E-7,0
TECHSAT 1B (GO-32),1998-043D,2026-06-16T20:29:16.301760,14.24428316,.0001052,99.0067,160.6038,163.3790,196.7423,0,U,25397,999,45128,.34602E-4,.33E-6,0
ISS (ZARYA),1998-067A,2026-06-16T20:48:26.492256,15.49265361,.0004749,51.6339,301.6783,194.3570,165.7284,0,U,25544,999,57170,.15124E-3,.7968E-4,0
PCSAT (NO-44),2001-043C,2026-06-16T14:24:47.672064,14.31955906,.0006082,67.0506,245.7892,264.6522,95.3886,0,U,26931,999,29036,.58858E-4,.75E-6,0
SAUDISAT 1C (SO-50),2002-058C,2026-06-16T14:46:48.425664,14.83045885,.0075275,64.5510,130.7531,262.5800,96.6748,0,U,27607,999,26437,.11462E-3,.824E-5,0
CUTE-1 (CO-55),2003-031E,2026-06-16T19:50:03.732576,14.24335514,.0009511,98.6736,176.3898,179.0123,181.1076,0,U,27844,999,19162,.11849E-3,.23E-5,0
CUBESAT XI-IV (CO-57),2003-031J,2026-06-16T17:51:58.360608,14.23620607,.0008995,98.6766,176.0218,198.3693,161.7162,0,U,27848,999,19131,.10473E-3,.195E-5,0
MOZHAETS 4 (RS22),2003-042A,2026-06-16T21:09:03.881088,14.73466646,.0009933,98.3461,352.2313,270.9686,196.4351,0,U,27939,999,21550,.11599E-3,.699E-5,0
CUBESAT XI-V,2005-043F,2026-06-16T09:12:06.602400,14.72629782,.00135859,98.2985,322.9884,203.3717,156.6874,0,U,28895,999,10163,.19648745E-3,.12E-4,0
CUTE-1.7+APD II (CO-65),2008-021C,2026-06-16T20:25:29.031744,15.09448624,.0009804,97.8272,149.2625,40.0986,320.0964,0,U,32785,999,98514,.24109E-3,.3795E-4,0
SEEDS II (CO-66),2008-021J,2026-06-16T17:51:09.743328,15.32737938,.0001104,97.7513,165.6203,5.3792,354.7461,0,U,32791,999,98722,.48396E-3,.15231E-3,0
YUBILEINY (RS30),2008-025A,2026-06-16T20:34:07.247712,12.43179216,.001886,82.5037,355.6457,314.6031,45.3509,0,U,32953,999,81965,-.33519E-3,-.37E-6,0
KKS-1 (KISEKI),2009-002H,2026-06-16T20:26:35.627136,14.83123438,.0006545,98.1189,90.2887,297.1837,62.8708,0,U,33499,999,93614,.14149E-3,.1098E-4,0
SWISSCUBE,2009-051B,2026-06-16T13:16:10.943616,14.62480577,.0005921,98.4037,75.4301,205.2603,154.8309,0,U,35932,999,88906,.16935E-3,.809E-5,0
BEESAT-1,2009-051C,2026-06-16T16:46:26.287104,14.61719794,.0004196,98.3964,75.2152,218.9046,141.1853,0,U,35933,999,88911,.14433E-3,.67E-5,0
ITUPSAT1,2009-051E,2026-06-16T16:32:42.236736,14.60440072,.0006243,98.4049,74.3979,235.8160,124.2448,0,U,35935,999,88866,.13815E-3,.621E-5,0
XIWANG-1 (HOPE-1),2009-072B,2026-06-16T20:43:59.875680,13.16437342,.0006867,100.4027,121.7014,232.2967,127.7524,0,U,36122,999,79296,-.75025E-3,-.331E-5,0
O/OREOS (USA 219),2010-062C,2026-06-16T20:40:16.756320,14.93743675,.0012545,71.9713,81.0777,63.8034,296.4425,0,U,37224,999,11659,.18071E-3,.1854E-4,0
JUGNU,2011-058B,2026-06-16T17:28:08.131296,14.13776645,.0018636,19.9615,311.2203,71.1708,330.3428,0,U,37839,999,75896,.68238E-4,.398E-5,0
SRMSAT,2011-058D,2026-06-16T09:23:02.445792,14.11575402,.00118046,19.9721,64.2860,194.8507,321.4366,0,U,37841,999,75770,.48036889E-4,.354E-5,0
STRAND-1,2013-009E,2026-06-16T13:38:51.849888,14.37162942,.0007698,98.3921,347.8182,227.4338,132.6200,0,U,39090,999,69697,.84083E-4,.207E-5,0
ZACUBE-1 (TSHEPISOSAT),2013-066B,2026-06-16T20:58:37.320384,15.01187648,.004077,97.8081,130.2093,248.7630,110.9237,0,U,39417,999,68068,.20205E-3,.2572E-4,0
GOMX-1,2013-066Q,2026-06-16T20:17:31.180128,14.69459321,.0130189,97.6477,8.3298,78.6172,282.9627,0,U,39430,999,66986,.2333E-3,.1524E-4,0
